OBJECT_NAME,OBJECT_ID,EPOCH,MEAN_MOTION,ECCENTRICITY,INCLINATION,RA_OF_ASC_NODE,ARG_OF_PERICENTER,MEAN_ANOMALY,EPHEMERIS_TYPE,CLASSIFICATION_TYPE,NORAD_CAT_ID,ELEMENT_SET_NO,REV_AT_EPOCH,BSTAR,MEAN_MOTION_DOT,MEAN_MOTION_DDOT
LINGQIAO VIDEO B,2015-057C,2026-05-18T12:56:57.437952,14.77451581,.0017326,97.6579,135.9776,11.4667,348.6936,0,U,40960,999,57107,.54209E-4,.338E-5,0
JILIN-1,2015-057D,2026-05-18T11:57:55.014624,14.78105577,.0017068,97.6510,139.3413,5.8101,354.3305,0,U,40961,999,57122,.74204E-4,.489E-5,0
FOX-1A (AO-85),2015-058D,2026-05-18T02:24:05.075136,14.90778967,.0129183,64.7765,12.4727,68.3958,293.0860,0,U,40967,999,10908,.21248E-3,.2278E-4,0
SINOD-D 1,2015-058E,2026-05-17T07:45:27.281088,14.95649294,.01176591,64.7761,355.5486,65.4694,295.8632,0,U,40968,999,11204,.25586287E-3,.3096E-4,0
ELEKTRO-L 2,2015-074A,2026-05-18T03:59:11.118624,1.00271829,.0001534,6.6186,70.8819,255.9375,314.3317,0,U,41105,999,3820,0,-.115E-5,0
DAMPE,2015-078A,2026-05-18T11:46:18.152832,15.30703013,.0011931,97.4559,143.8129,172.9493,187.1918,0,U,41173,999,58000,.26588E-4,.712E-5,0
ORBCOMM FM114,2015-081A,2026-05-18T09:24:11.981376,14.58820860,.0001461,47.0031,142.8689,38.2049,321.8940,0,U,41179,999,55340,.67085E-4,.146E-5,0
ORBCOMM FM110,2015-081D,2026-05-18T10:46:32.481120,14.58827593,.0004025,47.0003,142.0477,293.5529,66.4934,0,U,41182,999,55328,.11106E-3,.353E-5,0
ORBCOMM FM112,2015-081F,2026-05-18T11:43:13.388160,14.58854175,.0002492,47.0002,50.6774,60.2081,299.9052,0,U,41184,999,55461,.10023E-3,.302E-5,0
ORBCOMM FM113,2015-081G,2026-05-18T11:08:23.654688,14.58821642,.00011,47.0016,51.1547,48.5955,311.5025,0,U,41185,999,55459,.73625E-4,.177E-5,0
ORBCOMM FM108,2015-081J,2026-05-18T05:18:38.153088,14.58824279,.0002011,47.0058,323.8705,58.8234,301.2848,0,U,41187,999,55570,.10635E-3,.331E-5,0
ORBCOMM FM117,2015-081K,2026-05-18T11:03:22.959360,14.58822248,.0002459,47.0021,321.3814,68.0905,292.0242,0,U,41188,999,55578,.10325E-3,.316E-5,0
ORBCOMM FM116,2015-081L,2026-05-18T10:35:33.263808,14.58831701,.0002231,47.0031,51.2604,292.8498,67.2152,0,U,41189,999,55459,.10052E-3,.304E-5,0
HORYU-4,2016-012D,2026-05-18T13:21:54.705888,15.79552983,.0004661,30.9887,293.6545,74.4764,285.6408,0,U,41340,999,56610,.6787E-3,.131199E-2,0
ZIYUAN 3-02 (ZY 3-02),2016-033A,2026-05-18T12:37:08.320800,15.21488143,.0013341,97.3838,214.8682,45.1193,315.1124,0,U,41556,999,55347,.15564E-3,.3439E-4,0
CARTOSAT-2C,2016-040A,2026-05-18T11:42:23.187168,15.19231820,.0008527,97.4503,198.8697,231.7993,128.2474,0,U,41599,999,54920,.14788E-3,.3049E-4,0
LAPAN-A3,2016-040E,2026-05-18T11:47:48.718176,15.32901504,.0012088,97.1485,135.6192,117.4326,242.8147,0,U,41603,999,55026,.71049E-4,.2187E-4,0
GAOFEN-3,2016-049A,2026-05-18T12:41:36.300768,14.42211609,.0000954,98.4013,146.7623,83.8810,276.2488,0,U,41727,999,51437,.54875E-4,.137E-5,0
CAS-2T & KS-1Q,2016-066G,2026-05-18T10:58:07.526784,14.44597950,.0341326,98.3827,214.5304,219.6157,137.9641,0,U,41847,999,50050,.10205E-3,.657E-5,0
YUNHAI-1 01,2016-068A,2026-05-18T11:38:32.961408,14.32718253,.0006489,98.5836,149.7678,115.2338,244.9519,0,U,41857,999,49757,.21536E-3,.542E-5,0
RESOURCESAT-2A,2016-074A,2026-05-18T12:14:40.885152,14.21606361,.000281,98.7534,212.2554,140.7960,219.3421,0,U,41877,999,49008,.55568E-4,.78E-6,0
TANSAT,2016-081A,2026-05-18T12:05:26.054592,14.59923720,.0021585,98.5360,137.8853,43.5524,316.7375,0,U,41898,999,50029,.81913E-4,.343E-5,0
JILIN-1 03,2017-002B,2026-05-18T11:36:36.307584,15.40805132,.0003583,97.1952,146.0043,282.1212,77.9634,0,U,41914,999,51728,.21165E-3,.859E-4,0
CARTOSAT-2D,2017-008A,2026-05-18T12:29:11.664960,15.19249220,.000424,97.4121,198.3758,0.2535,359.8701,0,U,41948,999,51307,.14662E-3,.3023E-4,0
CARTOSAT-2E,2017-036C,2026-05-18T11:19:28.716096,15.19227117,.0004275,97.4292,198.7599,63.0268,297.1403,0,U,42767,999,49363,.12325E-3,.2528E-4,0
IRIDIUM 113,2017-039A,2026-05-18T05:45:27.207072,14.34217680,.0002277,86.3964,334.7026,92.2422,267.9034,0,U,42803,999,46689,.56519E-6,.21E-6,0
