LINGQIAO VIDEO B        
1 40960U 15057C   26138.53955368  .00000338  00000+0  54209-4 0  9998
2 40960  97.6579 135.9776 0017326  11.4667 348.6936 14.77451581571078
JILIN-1                 
1 40961U 15057D   26138.49855341  .00000489  00000+0  74204-4 0  9998
2 40961  97.6510 139.3413 0017068   5.8101 354.3305 14.78105577571226
FOX-1A (AO-85)          
1 40967U 15058D   26138.10005874  .00002278  00000+0  21248-3 0  9998
2 40967  64.7765  12.4727 0129183  68.3958 293.0860 14.90778967109083
SINOD-D 1               
1 40968U 15058E   26137.32323242  .00003096  00000+0  25586-3 0  9992
2 40968  64.7761 355.5486 0117659  65.4694 295.8632 14.95649294112045
ELEKTRO-L 2             
1 41105U 15074A   26138.16610091 -.00000115  00000+0  00000+0 0  9998
2 41105   6.6186  70.8819 0001534 255.9375 314.3317  1.00271829 38207
DAMPE                   
1 41173U 15078A   26138.49048788  .00000712  00000+0  26588-4 0  9997
2 41173  97.4559 143.8129 0011931 172.9493 187.1918 15.30703013580006
ORBCOMM FM114           
1 41179U 15081A   26138.39180534  .00000146  00000+0  67085-4 0  9990
2 41179  47.0031 142.8689 0001461  38.2049 321.8940 14.58820860553401
ORBCOMM FM110           
1 41182U 15081D   26138.44898705  .00000353  00000+0  11106-3 0  9998
2 41182  47.0003 142.0477 0004025 293.5529  66.4934 14.58827593553280
ORBCOMM FM112           
1 41184U 15081F   26138.48834940  .00000302  00000+0  10023-3 0  9996
2 41184  47.0002  50.6774 0002492  60.2081 299.9052 14.58854175554611
ORBCOMM FM113           
1 41185U 15081G   26138.46416267  .00000177  00000+0  73625-4 0  9991
2 41185  47.0016  51.1547 0001100  48.5955 311.5025 14.58821642554596
ORBCOMM FM108           
1 41187U 15081J   26138.22127492  .00000331  00000+0  10635-3 0  9999
2 41187  47.0058 323.8705 0002011  58.8234 301.2848 14.58824279555707
ORBCOMM FM117           
1 41188U 15081K   26138.46068240  .00000316  00000+0  10325-3 0  9990
2 41188  47.0021 321.3814 0002459  68.0905 292.0242 14.58822248555783
ORBCOMM FM116           
1 41189U 15081L   26138.44135722  .00000304  00000+0  10052-3 0  9993
2 41189  47.0031  51.2604 0002231 292.8498  67.2152 14.58831701554597
HORYU-4                 
1 41340U 16012D   26138.55688317  .00131199  00000+0  67870-3 0  9999
2 41340  30.9887 293.6545 0004661  74.4764 285.6408 15.79552983566107
ZIYUAN 3-02 (ZY 3-02)   
1 41556U 16033A   26138.52579075  .00003439  00000+0  15564-3 0  9996
2 41556  97.3838 214.8682 0013341  45.1193 315.1124 15.21488143553475
CARTOSAT-2C             
1 41599U 16040A   26138.48776837  .00003049  00000+0  14788-3 0  9995
2 41599  97.4503 198.8697 0008527 231.7993 128.2474 15.19231820549202
LAPAN-A3                
1 41603U 16040E   26138.49153609  .00002187  00000+0  71049-4 0  9994
2 41603  97.1485 135.6192 0012088 117.4326 242.8147 15.32901504550266
GAOFEN-3                
1 41727U 16049A   26138.52889237  .00000137  00000+0  54875-4 0  9998
2 41727  98.4013 146.7623 0000954  83.8810 276.2488 14.42211609514370
CAS-2T & KS-1Q          
1 41847U 16066G   26138.45703156  .00000657  00000+0  10205-3 0  9992
2 41847  98.3827 214.5304 0341326 219.6157 137.9641 14.44597950500501
YUNHAI-1 01             
1 41857U 16068A   26138.48510372  .00000542  00000+0  21536-3 0  9996
2 41857  98.5836 149.7678 0006489 115.2338 244.9519 14.32718253497570
RESOURCESAT-2A          
1 41877U 16074A   26138.51019543  .00000078  00000+0  55568-4 0  9990
2 41877  98.7534 212.2554 0002810 140.7960 219.3421 14.21606361490087
TANSAT                  
1 41898U 16081A   26138.50377378  .00000343  00000+0  81913-4 0  9991
2 41898  98.5360 137.8853 0021585  43.5524 316.7375 14.59923720500292
JILIN-1 03              
1 41914U 17002B   26138.48375356  .00008590  00000+0  21165-3 0  9999
2 41914  97.1952 146.0043 0003583 282.1212  77.9634 15.40805132517287
CARTOSAT-2D             
1 41948U 17008A   26138.52027390  .00003023  00000+0  14662-3 0  9999
2 41948  97.4121 198.3758 0004240   0.2535 359.8701 15.19249220513072
CARTOSAT-2E             
1 42767U 17036C   26138.47186014  .00002528  00000+0  12325-3 0  9996
2 42767  97.4292 198.7599 0004275  63.0268 297.1403 15.19227117493639
IRIDIUM 113             
1 42803U 17039A   26138.23989823  .00000021  00000+0  56519-6 0  9995
2 42803  86.3964 334.7026 0002277  92.2422 267.9034 14.34217680466899
